STARLINK-1666_new
1 16357C 20062AK  21326.11285100 -.00011512  00000-0 -77139-3 0  3263
2 16357  53.0531 198.2466 0001855  70.4956 134.1725 15.06405987    19
STARLINK-1666_old
1 26357C 20062AK  21325.10921410  .00009421  00000-0  63109-3 0  3257
2 26357  53.0534 202.7522 0001903  69.3178  89.5481 15.06396117    19
